{
    "links": {
        "self": "http://www.neowsapp.com/rest/v1/neo/54016501?api_key=iIulBulltgU6a56xZRHN4H3l9WmuAYTsLGpBGhQ2"
    },
    "id": "54016501",
    "neo_reference_id": "54016501",
    "name": "(2020 GK2)",
    "designation": "2020 GK2",
    "nasa_jpl_url": "http://ssd.jpl.nasa.gov/sbdb.cgi?sstr=54016501",
    "absolute_magnitude_h": 22.355,
    "estimated_diameter": {
        "kilometers": {
            "estimated_diameter_min": 0.0898576335,
            "estimated_diameter_max": 0.2009277767
        },
        "meters": {
            "estimated_diameter_min": 89.8576334635,
            "estimated_diameter_max": 200.9277767218
        },
        "miles": {
            "estimated_diameter_min": 0.0558349276,
            "estimated_diameter_max": 0.1248506935
        },
        "feet": {
            "estimated_diameter_min": 294.8085181726,
            "estimated_diameter_max": 659.2118869798
        }
    },
    "is_potentially_hazardous_asteroid": false,
    "close_approach_data": [
        {
            "close_approach_date": "1915-05-29",
            "close_approach_date_full": "1915-May-29 07:19",
            "epoch_date_close_approach": -1722876060000,
            "relative_velocity": {
                "kilometers_per_second": "16.7530144696",
                "kilometers_per_hour": "60310.8520904588",
                "miles_per_hour": "37474.8180669854"
            },
            "miss_distance": {
                "astronomical": "0.0839275546",
                "lunar": "32.6478187394",
                "kilometers": "12555383.402468702",
                "miles": "7801553.4834520076"
            },
            "orbiting_body": "Mars"
        },
        {
            "close_approach_date": "2020-03-25",
            "close_approach_date_full": "2020-Mar-25 07:38",
            "epoch_date_close_approach": 1585121880000,
            "relative_velocity": {
                "kilometers_per_second": "17.2629445154",
                "kilometers_per_hour": "62146.6002553921",
                "miles_per_hour": "38615.4805864685"
            },
            "miss_distance": {
                "astronomical": "0.0835161274",
                "lunar": "32.4877735586",
                "kilometers": "12493834.769688638",
                "miles": "7763308.9364656844"
            },
            "orbiting_body": "Earth"
        }
    ],
    "orbital_data": {
        "orbit_id": "4",
        "orbit_determination_date": "2020-04-19 06:36:49",
        "first_observation_date": "2020-04-04",
        "last_observation_date": "2020-04-18",
        "data_arc_in_days": 14,
        "observations_used": 26,
        "orbit_uncertainty": "8",
        "minimum_orbit_intersection": ".0571892",
        "jupiter_tisserand_invariant": "3.739",
        "epoch_osculation": "2458949.5",
        "eccentricity": ".5957549613953762",
        "semi_major_axis": "1.865465764293926",
        "inclination": "9.004817928559888",
        "ascending_node_longitude": "159.8086304626291",
        "orbital_period": "930.6349352455617",
        "perihelion_distance": ".7541052799026022",
        "perihelion_argument": "313.3539037637341",
        "aphelion_distance": "2.97682624868525",
        "perihelion_time": "2458890.147249602571",
        "mean_anomaly": "22.95958311240105",
        "mean_motion": ".3868326734424694",
        "equinox": "J2000",
        "orbit_class": {
            "orbit_class_type": "APO",
            "orbit_class_description": "Near-Earth asteroid orbits which cross the Earth’s orbit similar to that of 1862 Apollo",
            "orbit_class_range": "a (semi-major axis) > 1.0 AU; q (perihelion) < 1.017 AU"
        }
    },
    "is_sentry_object": false
}